{"type":"FeatureCollection","features":[{"type":"Feature","properties":{"contact":"Department of Veteran Affair","zipcode":48201,"beds":432,"conphone":"(313) 562-6000","facname":"Department of Veterans Affairs Detroit Medical Center","objectid":2,"city":"Detroit","address":"4646 John R Rd."},"geometry":{"type":"Point","coordinates":[-83.05995248583335,42.35680777815136]}},{"type":"Feature","properties":{"contact":"St. John Health System","zipcode":48236,"beds":572,"conphone":"(313) 343-4000","facname":"St. John Hospital & Medical Ctr. - Detroit","objectid":9,"city":"Detroit","address":"22101 Moross Rd."},"geometry":{"type":"Point","coordinates":[-82.91405691453649,42.41916225569439]}},{"type":"Feature","properties":{"contact":"Detroit Medical Center","zipcode":48207,"beds":279,"conphone":"(313) 745-3000","facname":"Detroit Receiving Hospital","objectid":3,"city":"Detroit","address":"4201 Saint Antoine Ave."},"geometry":{"type":"Point","coordinates":[-83.0546465344995,42.35246675958835]}},{"type":"Feature","properties":{"contact":"Detroit Medical Center","zipcode":48207,"beds":244,"conphone":"(313) 745-7555","facname":"Hutzel Hospital","objectid":7,"city":"Detroit","address":"4707 Saint Antoine Ave."},"geometry":{"type":"Point","coordinates":[-83.05675507389921,42.35670809266596]}},{"type":"Feature","properties":{"contact":"Detroit Medical Center","zipcode":48235,"beds":551,"conphone":"(313) 966-3300","facname":"Grace/Sinai Hospital","objectid":4,"city":"Detroit","address":"6071 W. Outer Dr."},"geometry":{"type":"Point","coordinates":[-83.18232093970947,42.41807832889761]}},{"type":"Feature","properties":{"contact":"Henry Ford Health System","zipcode":48202,"beds":903,"conphone":"(313) 876-2600","facname":"Henry Ford Hospital - Detroit","objectid":6,"city":"Detroit","address":"2799 W. Grand Blvd."},"geometry":{"type":"Point","coordinates":[-83.08495488451467,42.36795987252412]}},{"type":"Feature","properties":{"contact":"Detroit Medical Center","zipcode":48201,"beds":639,"conphone":"(313) 745-8040","facname":"Harper Hospital","objectid":5,"city":"Detroit","address":"3990 John R St."},"geometry":{"type":"Point","coordinates":[-83.05650444920009,42.351508418046734]}},{"type":"Feature","properties":{"contact":"Detroit Medical Center","zipcode":48207,"beds":245,"conphone":"(313) 745-0073","facname":"Childrens Hospital of Michigan","objectid":1,"city":"Detroit","address":"3901 Beaubien Ave."},"geometry":{"type":"Point","coordinates":[-83.0546465344995,42.35246675958835]}}]}